STARLINK-4407           
1 53196U 22084H   25238.91671296  .00626789  00000+0  15228-1 0  9997
2 53196  97.6541 301.0746 0001197  94.0155 123.3572 15.38845495  5810
STARLINK-4403           
1 53197U 22084J   25238.67660477  .00000647  00000+0  54969-4 0  9997
2 53197  97.6370 299.2594 0002612 154.3449 205.7905 15.01262110170050
STARLINK-4385           
1 53198U 22084K   25238.88026258 -.00000379  00000+0 -24918-4 0  9999
2 53198  97.6362 299.4606 0002386 166.7587 193.3700 15.01262469170744
STARLINK-4395           
1 53199U 22084L   25238.61181875  .00000775  00000+0  64950-4 0  9996
2 53199  97.6370 299.1877 0002462 186.5120 173.6073 15.01256390170042
STARLINK-4417           
1 53200U 22084M   25238.67499624 -.00000048  00000+0  86192-6 0  9997
2 53200  97.6368 299.2656 0002435 165.0651 195.0645 15.01260839170719
STARLINK-4405           
1 53201U 22084N   25238.93234805  .00000264  00000+0  25149-4 0  9997
2 53201  97.6352 299.5242 0001533 115.5138 244.6245 15.01265588170099
STARLINK-4411           
1 53202U 22084P   25238.67105848 -.00002495  00000+0 -18966-3 0  9991
2 53202  97.6369 299.2630 0001215 162.6247 197.5019 15.01278112170055
STARLINK-4409           
1 53203U 22084Q   25238.66734505 -.00000039  00000+0  15227-5 0  9999
2 53203  97.6369 299.2498 0002293 145.1142 215.0233 15.01266730170052
STARLINK-4410           
1 53204U 22084R   25238.67130795  .00013670  00000+0  10659-2 0  9997
2 53204  97.6411 299.2615 0002435 121.6110 238.5352 15.01292522170717
STARLINK-4397           
1 53205U 22084S   25238.93025256  .00000095  00000+0  11937-4 0  9991
2 53205  97.6356 299.5090 0001097 123.8392 236.2937 15.01263803170090
STARLINK-4408           
1 53206U 22084T   25238.91914038  .00000200  00000+0  20176-4 0  9998
2 53206  97.6379 299.5463 0001490  90.1166 270.0229 15.01267601170092
STARLINK-4413           
1 53207U 22084U   25238.92840573  .00000940  00000+0  77735-4 0  9996
2 53207  97.6368 299.5011 0002576  96.6911 263.4607 15.01262734170093
STARLINK-4425           
1 53208U 22084V   25238.66920498 -.00001998  00000+0 -15100-3 0  9996
2 53208  97.6392 299.2512 0002399 144.8141 215.3242 15.01260264170051
STARLINK-4423           
1 53209U 22084W   25238.72683915  .00000391  00000+0  34973-4 0  9998
2 53209  97.6367 299.3112 0001242 104.1019 256.0343 15.01263012170069
STARLINK-4427           
1 53210U 22084X   25238.93212540  .00017414  00000+0  13596-2 0  9995
2 53210  97.6349 299.5109 0002529 134.6266 225.5165 15.01184312170631
STARLINK-4416           
1 53212U 22084Z   25238.72659390  .00000206  00000+0  20582-4 0  9998
2 53212  97.6353 299.3116 0001436  56.5081 303.6281 15.01265166170057
