[{"OBJECT_NAME":"STARLINK-4407","OBJECT_ID":"2022-084H","EPOCH":"2025-08-26T22:00:03.999744","MEAN_MOTION":15.38845495,"ECCENTRICITY":0.00011975,"INCLINATION":97.6541,"RA_OF_ASC_NODE":301.0746,"ARG_OF_PERICENTER":94.0155,"MEAN_ANOMALY":123.3572,"EPHEMERIS_TYPE":0,"CLASSIFICATION_TYPE":"U","NORAD_CAT_ID":53196,"ELEMENT_SET_NO":999,"REV_AT_EPOCH":581,"BSTAR":0.015227594,"MEAN_MOTION_DOT":0.00626789,"MEAN_MOTION_DDOT":0},{"OBJECT_NAME":"STARLINK-4403","OBJECT_ID":"2022-084J","EPOCH":"2025-08-26T16:14:18.652128","MEAN_MOTION":15.0126211,"ECCENTRICITY":0.00026123,"INCLINATION":97.637,"RA_OF_ASC_NODE":299.2594,"ARG_OF_PERICENTER":154.3449,"MEAN_ANOMALY":205.7905,"EPHEMERIS_TYPE":0,"CLASSIFICATION_TYPE":"U","NORAD_CAT_ID":53197,"ELEMENT_SET_NO":999,"REV_AT_EPOCH":17005,"BSTAR":5.4969343e-5,"MEAN_MOTION_DOT":6.47e-6,"MEAN_MOTION_DDOT":0},{"OBJECT_NAME":"STARLINK-4385","OBJECT_ID":"2022-084K","EPOCH":"2025-08-26T21:07:34.686912","MEAN_MOTION":15.01262469,"ECCENTRICITY":0.00023868,"INCLINATION":97.6362,"RA_OF_ASC_NODE":299.4606,"ARG_OF_PERICENTER":166.7587,"MEAN_ANOMALY":193.37,"EPHEMERIS_TYPE":0,"CLASSIFICATION_TYPE":"U","NORAD_CAT_ID":53198,"ELEMENT_SET_NO":999,"REV_AT_EPOCH":17074,"BSTAR":-2.4917645e-5,"MEAN_MOTION_DOT":-3.79e-6,"MEAN_MOTION_DDOT":0},{"OBJECT_NAME":"STARLINK-4395","OBJECT_ID":"2022-084L","EPOCH":"2025-08-26T14:41:01.140000","MEAN_MOTION":15.0125639,"ECCENTRICITY":0.0002462,"INCLINATION":97.637,"RA_OF_ASC_NODE":299.1877,"ARG_OF_PERICENTER":186.512,"MEAN_ANOMALY":173.6073,"EPHEMERIS_TYPE":0,"CLASSIFICATION_TYPE":"U","NORAD_CAT_ID":53199,"ELEMENT_SET_NO":999,"REV_AT_EPOCH":17004,"BSTAR":6.4949924e-5,"MEAN_MOTION_DOT":7.75e-6,"MEAN_MOTION_DDOT":0},{"OBJECT_NAME":"STARLINK-4417","OBJECT_ID":"2022-084M","EPOCH":"2025-08-26T16:11:59.675136","MEAN_MOTION":15.01260839,"ECCENTRICITY":0.00024356,"INCLINATION":97.6368,"RA_OF_ASC_NODE":299.2656,"ARG_OF_PERICENTER":165.0651,"MEAN_ANOMALY":195.0645,"EPHEMERIS_TYPE":0,"CLASSIFICATION_TYPE":"U","NORAD_CAT_ID":53200,"ELEMENT_SET_NO":999,"REV_AT_EPOCH":17071,"BSTAR":8.61916e-7,"MEAN_MOTION_DOT":-4.8e-7,"MEAN_MOTION_DDOT":0},{"OBJECT_NAME":"STARLINK-4405","OBJECT_ID":"2022-084N","EPOCH":"2025-08-26T22:22:34.871520","MEAN_MOTION":15.01265588,"ECCENTRICITY":0.00015337,"INCLINATION":97.6352,"RA_OF_ASC_NODE":299.5242,"ARG_OF_PERICENTER":115.5138,"MEAN_ANOMALY":244.6245,"EPHEMERIS_TYPE":0,"CLASSIFICATION_TYPE":"U","NORAD_CAT_ID":53201,"ELEMENT_SET_NO":999,"REV_AT_EPOCH":17009,"BSTAR":2.5148932e-5,"MEAN_MOTION_DOT":2.64e-6,"MEAN_MOTION_DDOT":0},{"OBJECT_NAME":"STARLINK-4411","OBJECT_ID":"2022-084P","EPOCH":"2025-08-26T16:06:19.452672","MEAN_MOTION":15.01278112,"ECCENTRICITY":0.00012152,"INCLINATION":97.6369,"RA_OF_ASC_NODE":299.263,"ARG_OF_PERICENTER":162.6247,"MEAN_ANOMALY":197.5019,"EPHEMERIS_TYPE":0,"CLASSIFICATION_TYPE":"U","NORAD_CAT_ID":53202,"ELEMENT_SET_NO":999,"REV_AT_EPOCH":17005,"BSTAR":-0.00018966081,"MEAN_MOTION_DOT":-2.495e-5,"MEAN_MOTION_DDOT":0},{"OBJECT_NAME":"STARLINK-4409","OBJECT_ID":"2022-084Q","EPOCH":"2025-08-26T16:00:58.612320","MEAN_MOTION":15.0126673,"ECCENTRICITY":0.00022938,"INCLINATION":97.6369,"RA_OF_ASC_NODE":299.2498,"ARG_OF_PERICENTER":145.1142,"MEAN_ANOMALY":215.0233,"EPHEMERIS_TYPE":0,"CLASSIFICATION_TYPE":"U","NORAD_CAT_ID":53203,"ELEMENT_SET_NO":999,"REV_AT_EPOCH":17005,"BSTAR":1.522746e-6,"MEAN_MOTION_DOT":-3.9e-7,"MEAN_MOTION_DDOT":0},{"OBJECT_NAME":"STARLINK-4410","OBJECT_ID":"2022-084R","EPOCH":"2025-08-26T16:06:41.006880","MEAN_MOTION":15.01292522,"ECCENTRICITY":0.00024358,"INCLINATION":97.6411,"RA_OF_ASC_NODE":299.2615,"ARG_OF_PERICENTER":121.611,"MEAN_ANOMALY":238.5352,"EPHEMERIS_TYPE":0,"CLASSIFICATION_TYPE":"U","NORAD_CAT_ID":53204,"ELEMENT_SET_NO":999,"REV_AT_EPOCH":17071,"BSTAR":0.0010658889,"MEAN_MOTION_DOT":0.0001367,"MEAN_MOTION_DDOT":0},{"OBJECT_NAME":"STARLINK-4397","OBJECT_ID":"2022-084S","EPOCH":"2025-08-26T22:19:33.821184","MEAN_MOTION":15.01263803,"ECCENTRICITY":0.00010975,"INCLINATION":97.6356,"RA_OF_ASC_NODE":299.509,"ARG_OF_PERICENTER":123.8392,"MEAN_ANOMALY":236.2937,"EPHEMERIS_TYPE":0,"CLASSIFICATION_TYPE":"U","NORAD_CAT_ID":53205,"ELEMENT_SET_NO":999,"REV_AT_EPOCH":17009,"BSTAR":1.1936636e-5,"MEAN_MOTION_DOT":9.5e-7,"MEAN_MOTION_DDOT":0},{"OBJECT_NAME":"STARLINK-4408","OBJECT_ID":"2022-084T","EPOCH":"2025-08-26T22:03:33.728832","MEAN_MOTION":15.01267601,"ECCENTRICITY":0.000149,"INCLINATION":97.6379,"RA_OF_ASC_NODE":299.5463,"ARG_OF_PERICENTER":90.1166,"MEAN_ANOMALY":270.0229,"EPHEMERIS_TYPE":0,"CLASSIFICATION_TYPE":"U","NORAD_CAT_ID":53206,"ELEMENT_SET_NO":999,"REV_AT_EPOCH":17009,"BSTAR":2.017564e-5,"MEAN_MOTION_DOT":2.0e-6,"MEAN_MOTION_DDOT":0},{"OBJECT_NAME":"STARLINK-4413","OBJECT_ID":"2022-084U","EPOCH":"2025-08-26T22:16:54.255072","MEAN_MOTION":15.01262734,"ECCENTRICITY":0.00025764,"INCLINATION":97.6368,"RA_OF_ASC_NODE":299.5011,"ARG_OF_PERICENTER":96.6911,"MEAN_ANOMALY":263.4607,"EPHEMERIS_TYPE":0,"CLASSIFICATION_TYPE":"U","NORAD_CAT_ID":53207,"ELEMENT_SET_NO":999,"REV_AT_EPOCH":17009,"BSTAR":7.7735453e-5,"MEAN_MOTION_DOT":9.4e-6,"MEAN_MOTION_DDOT":0},{"OBJECT_NAME":"STARLINK-4425","OBJECT_ID":"2022-084V","EPOCH":"2025-08-26T16:03:39.310272","MEAN_MOTION":15.01260264,"ECCENTRICITY":0.00023998,"INCLINATION":97.6392,"RA_OF_ASC_NODE":299.2512,"ARG_OF_PERICENTER":144.8141,"MEAN_ANOMALY":215.3242,"EPHEMERIS_TYPE":0,"CLASSIFICATION_TYPE":"U","NORAD_CAT_ID":53208,"ELEMENT_SET_NO":999,"REV_AT_EPOCH":17005,"BSTAR":-0.00015099859,"MEAN_MOTION_DOT":-1.998e-5,"MEAN_MOTION_DDOT":0},{"OBJECT_NAME":"STARLINK-4423","OBJECT_ID":"2022-084W","EPOCH":"2025-08-26T17:26:38.902560","MEAN_MOTION":15.01263012,"ECCENTRICITY":0.00012423,"INCLINATION":97.6367,"RA_OF_ASC_NODE":299.3112,"ARG_OF_PERICENTER":104.1019,"MEAN_ANOMALY":256.0343,"EPHEMERIS_TYPE":0,"CLASSIFICATION_TYPE":"U","NORAD_CAT_ID":53209,"ELEMENT_SET_NO":999,"REV_AT_EPOCH":17006,"BSTAR":3.497293e-5,"MEAN_MOTION_DOT":3.91e-6,"MEAN_MOTION_DDOT":0},{"OBJECT_NAME":"STARLINK-4427","OBJECT_ID":"2022-084X","EPOCH":"2025-08-26T22:22:15.634560","MEAN_MOTION":15.01184312,"ECCENTRICITY":0.00025294,"INCLINATION":97.6349,"RA_OF_ASC_NODE":299.5109,"ARG_OF_PERICENTER":134.6266,"MEAN_ANOMALY":225.5165,"EPHEMERIS_TYPE":0,"CLASSIFICATION_TYPE":"U","NORAD_CAT_ID":53210,"ELEMENT_SET_NO":999,"REV_AT_EPOCH":17063,"BSTAR":0.0013596417,"MEAN_MOTION_DOT":0.00017414,"MEAN_MOTION_DDOT":0},{"OBJECT_NAME":"STARLINK-4416","OBJECT_ID":"2022-084Z","EPOCH":"2025-08-26T17:26:17.712960","MEAN_MOTION":15.01265166,"ECCENTRICITY":0.00014362,"INCLINATION":97.6353,"RA_OF_ASC_NODE":299.3116,"ARG_OF_PERICENTER":56.5081,"MEAN_ANOMALY":303.6281,"EPHEMERIS_TYPE":0,"CLASSIFICATION_TYPE":"U","NORAD_CAT_ID":53212,"ELEMENT_SET_NO":999,"REV_AT_EPOCH":17005,"BSTAR":2.0581659e-5,"MEAN_MOTION_DOT":2.06e-6,"MEAN_MOTION_DDOT":0}]
